QIANFAN-25              
1 61558U 24185G   25245.50970855  .00000758  00000+0  45587-3 0  9993
2 61558  88.9742  89.6593 0005970 252.0505 108.0026 14.05776314 55280
QIANFAN-26              
1 61559U 24185H   25245.50881603  .00000361  00000+0  34840-3 0  9996
2 61559  88.9754  90.6899 0004801 337.7821  22.3136 13.77733281 54732
QIANFAN-27              
1 61560U 24185J   25245.50920171  .00000854  00000+0  34421-3 0  9994
2 61560  88.9748  88.8255 0005830 260.6438  99.4097 14.27150217 55722
QIANFAN-28              
1 61561U 24185K   25245.60671369  .00001457  00000+0  58492-3 0  9992
2 61561  88.9764  88.8098 0004910 261.3280  98.7358 14.27731167 55740
QIANFAN-29              
1 61562U 24185L   25245.56748221  .00000255  00000+0  37712-3 0  9997
2 61562  88.9733  91.7781 0009961 355.1771   4.9283 13.50960941 54134
QIANFAN-30              
1 61563U 24185M   25245.53989039  .00000246  00000+0  36822-3 0  9990
2 61563  88.9752  91.2675 0006941 342.9792  17.1124 13.49938963 54413
QIANFAN-31              
1 61564U 24185N   25245.58633259  .00000208  00000+0  27151-3 0  9999
2 61564  88.9737  91.2249 0006530 341.6368  18.4550 13.57911795 54435
QIANFAN-32              
1 61565U 24185P   25245.56447473  .00000245  00000+0  36267-3 0  9998
2 61565  88.9795  91.3686 0009588   5.7648 354.3612 13.50691694 54382
